STARLINK-2497           
1 48455U 21040AD  26068.61196118  .00010340  00000+0  36088-3 0  9993
2 48455  53.1606 178.4891 0001813  58.8025 301.3153 15.30188220266660
TEVEL2-4                
1 63213U 25052D   26068.69417973  .00020990  00000+0  70363-3 0  9998
2 63213  97.4009 325.1237 0004733  95.3468 264.8313 15.30925813 54879
